{
    "features":
    [
        { "type": "Feature", "properties": { "NAME_EN": "Colonia del Sacramento", "LATITUDE": "-34.479999", "LONGITUDE": "-57.840003" }},
        { "type": "Feature", "properties": { "NAME_EN": "Trinidad", "LATITUDE": "-33.543999", "LONGITUDE": "-56.900997" }},
        { "type": "Feature", "properties": { "NAME_EN": "Los Angeles", "LATITUDE": "34.110", "LONGITUDE": "-118.410"}},
        { "type": "Feature", "properties": { "NAME_EN": "Chicago", "LATITUDE": "41.840", "LONGITUDE": "-87.680"}},
        { "type": "Feature", "properties": { "NAME_EN": "Houston", "LATITUDE": "29.770", "LONGITUDE": "-95.390"}},
        { "type": "Feature", "properties": { "NAME_EN": "Philadelphia", "LATITUDE": "40.010", "LONGITUDE": "-75.130"}},
        { "type": "Feature", "properties": { "NAME_EN": "Phoenix", "LATITUDE": "33.540", "LONGITUDE": "-112.070"}},
        { "type": "Feature", "properties": { "NAME_EN": "San Diego", "LATITUDE": "32.810", "LONGITUDE": "-117.140"}},  
        { "type": "Feature", "properties": { "NAME_EN": "San Antonio", "LATITUDE": "29.460", "LONGITUDE": "-98.510"}},
        { "type": "Feature", "properties": { "NAME_EN": "Dallas", "LATITUDE": "32.790", "LONGITUDE": "-96.770"}},
        { "type": "Feature", "properties": { "NAME_EN": "Detroit", "LATITUDE": "42.380", "LONGITUDE": "-83.100"}},
        { "type": "Feature", "properties": { "NAME_EN": "San Jose", "LATITUDE": "37.300", "LONGITUDE": "-121.850"}},
        { "type": "Feature", "properties": { "NAME_EN": "Jacksonville", "LATITUDE": "30.330", "LONGITUDE": "-81.660"}},
        { "type": "Feature", "properties": { "NAME_EN": "Indianapolis", "LATITUDE": "39.780", "LONGITUDE": "-86.150"}},
        { "type": "Feature", "properties": { "NAME_EN": "San Francisco", "LATITUDE": "37.770", "LONGITUDE": "-122.450"}},
        { "type": "Feature", "properties": { "NAME_EN": "Columbus", "LATITUDE": "39.990", "LONGITUDE": "-82.990"}},
        { "type": "Feature", "properties": { "NAME_EN": "Austin", "LATITUDE": "30.310", "LONGITUDE": "-97.750"}},
        { "type": "Feature", "properties": { "NAME_EN": "Memphis", "LATITUDE": "35.110", "LONGITUDE": "-90.010"}},
        { "type": "Feature", "properties": { "NAME_EN": "Baltimore", "LATITUDE": "39.300", "LONGITUDE": "-76.610"}},
        { "type": "Feature", "properties": { "NAME_EN": "Fort Worth", "LATITUDE": "32.750", "LONGITUDE": "-97.340"}},
        { "type": "Feature", "properties": { "NAME_EN": "El paso", "LATITUDE": "31.850", "LONGITUDE": "-106.440"}},
        { "type": "Feature", "properties": { "NAME_EN": "Charlotte", "LATITUDE": "35.200", "LONGITUDE": "-80.830"}},
        { "type": "Feature", "properties": { "NAME_EN": "Milwaukee", "LATITUDE": "43.060", "LONGITUDE": "-87.970"}},
        { "type": "Feature", "properties": { "NAME_EN": "Boston", "LATITUDE": "42.340", "LONGITUDE": "-71.020"}},
        { "type": "Feature", "properties": { "NAME_EN": "Seattle", "LATITUDE": "47.620", "LONGITUDE": "-122.350"}},
        { "type": "Feature", "properties": { "NAME_EN": "Denver", "LATITUDE": "39.770", "LONGITUDE": "-104.870"}},
        { "type": "Feature", "properties": { "NAME_EN": "Washington", "LATITUDE": "38.910", "LONGITUDE": "-77.020"}},
        { "type": "Feature", "properties": { "NAME_EN": "Nashville", "LATITUDE": "36.170", "LONGITUDE": "-86.780"}},
        { "type": "Feature", "properties": { "NAME_EN": "Portland", "LATITUDE": "45.540", "LONGITUDE": "-122.660"}},
        { "type": "Feature", "properties": { "NAME_EN": "Las Vegas", "LATITUDE": "36.210", "LONGITUDE": "-115.220"}},
        { "type": "Feature", "properties": { "NAME_EN": "Oklahoma City", "LATITUDE": "35.470", "LONGITUDE": "-97.510"}},
        { "type": "Feature", "properties": { "NAME_EN": "Tucson", "LATITUDE": "32.200", "LONGITUDE": "-110.890"}},
        { "type": "Feature", "properties": { "NAME_EN": "Long Beach", "LATITUDE": "33.790", "LONGITUDE": "-118.160"}},
        { "type": "Feature", "properties": { "NAME_EN": "Albuquerque", "LATITUDE": "35.120", "LONGITUDE": "-106.620"}},
        { "type": "Feature", "properties": { "NAME_EN": "New Orleans", "LATITUDE": "30.070", "LONGITUDE": "-89.930"}},
        { "type": "Feature", "properties": { "NAME_EN": "Cleveland", "LATITUDE": "41.480", "LONGITUDE": "-81.680"}},
        { "type": "Feature", "properties": { "NAME_EN": "Fresno", "LATITUDE": "36.780", "LONGITUDE": "-119.790"}},
        { "type": "Feature", "properties": { "NAME_EN": "Sacramento", "LATITUDE": "38.570", "LONGITUDE": "-121.470"}},
        { "type": "Feature", "properties": { "NAME_EN": "Virginia Beach", "LATITUDE": "36.740", "LONGITUDE": "-76.040"}},
        { "type": "Feature", "properties": { "NAME_EN": "Kansas City", "LATITUDE": "39.120", "LONGITUDE": "-94.550"}},
        { "type": "Feature", "properties": { "NAME_EN": "Mesa", "LATITUDE": "33.420", "LONGITUDE": "-111.740"}},
        { "type": "Feature", "properties": { "NAME_EN": "Atlanta", "LATITUDE": "33.760", "LONGITUDE": "-84.420"}},
        { "type": "Feature", "properties": { "NAME_EN": "Omaha", "LATITUDE": "41.260", "LONGITUDE": "-96.010"}},
        { "type": "Feature", "properties": { "NAME_EN": "Oakland", "LATITUDE": "37.770", "LONGITUDE": "-122.220"}},
        { "type": "Feature", "properties": { "NAME_EN": "Tulsa", "LATITUDE": "36.130", "LONGITUDE": "-95.920"}},
        { "type": "Feature", "properties": { "NAME_EN": "Honolulu", "LATITUDE": "21.320", "LONGITUDE": "-157.800"}},
        { "type": "Feature", "properties": { "NAME_EN": "Miami", "LATITUDE": "25.780", "LONGITUDE": "-80.210"}},
        { "type": "Feature", "properties": { "NAME_EN": "Minneapolis", "LATITUDE": "44.960", "LONGITUDE": "-93.270"}},
        { "type": "Feature", "properties": { "NAME_EN": "Colorado Springs", "LATITUDE": "38.860", "LONGITUDE": "-104.760"}},
        { "type": "Feature", "properties": { "NAME_EN": "Arlington", "LATITUDE": "32.690", "LONGITUDE": "-97.130"}},
        { "type": "Feature", "properties": { "NAME_EN": "Wichita", "LATITUDE": "37.690", "LONGITUDE": "-97.340"}},
        { "type": "Feature", "properties": { "NAME_EN": "Santa Ana", "LATITUDE": "33.740", "LONGITUDE": "-117.880"}},
        { "type": "Feature", "properties": { "NAME_EN": "Anaheim", "LATITUDE": "33.840", "LONGITUDE": "-117.870"}},
        { "type": "Feature", "properties": { "NAME_EN": "Saint Louis", "LATITUDE": "38.640", "LONGITUDE": "-90.240"}},
        { "type": "Feature", "properties": { "NAME_EN": "Raleigh", "LATITUDE": "35.820", "LONGITUDE": "-78.660"}},
        { "type": "Feature", "properties": { "NAME_EN": "Pittsburgh", "LATITUDE": "40.440", "LONGITUDE": "-79.980"}},
        { "type": "Feature", "properties": { "NAME_EN": "Tampa", "LATITUDE": "27.960", "LONGITUDE": "-82.480"}},
        { "type": "Feature", "properties": { "NAME_EN": "Cincinnati", "LATITUDE": "39.140", "LONGITUDE": "-84.510"}},
        { "type": "Feature", "properties": { "NAME_EN": "Toledo", "LATITUDE": "41.660", "LONGITUDE": "-83.580"}},
        { "type": "Feature", "properties": { "NAME_EN": "Aurora", "LATITUDE": "39.710", "LONGITUDE": "-104.730"}},
        { "type": "Feature", "properties": { "NAME_EN": "Riverside", "LATITUDE": "33.940", "LONGITUDE": "-117.400"}},
        { "type": "Feature", "properties": { "NAME_EN": "Tokyo", "LATITUDE": "35.6897", "LONGITUDE": "139.6922"}},
        { "type": "Feature", "properties": { "NAME_EN": "Jakarta", "LATITUDE": "-6.1750", "LONGITUDE": "106.8275"}},
        { "type": "Feature", "properties": { "NAME_EN": "Delhi", "LATITUDE": "28.6100", "LONGITUDE": "77.2300"}},
        { "type": "Feature", "properties": { "NAME_EN": "Guangzhou", "LATITUDE": "23.1300", "LONGITUDE": "113.2600"}},
        { "type": "Feature", "properties": { "NAME_EN": "Mumbai", "LATITUDE": "19.0761", "LONGITUDE": "72.8775"}},
        { "type": "Feature", "properties": { "NAME_EN": "Manila", "LATITUDE": "14.5958", "LONGITUDE": "120.9772"}},
        { "type": "Feature", "properties": { "NAME_EN": "Shanghai", "LATITUDE": "31.1667", "LONGITUDE": "121.4667"}},
        { "type": "Feature", "properties": { "NAME_EN": "Sao Paulo", "LATITUDE": "-23.5500", "LONGITUDE": "-46.6333"}},
        { "type": "Feature", "properties": { "NAME_EN": "Seoul", "LATITUDE": "37.5600", "LONGITUDE": "126.9900"}},
        { "type": "Feature", "properties": { "NAME_EN": "Mexico City", "LATITUDE": "19.4333", "LONGITUDE": "-99.1333"}},
        { "type": "Feature", "properties": { "NAME_EN": "Cairo", "LATITUDE": "30.0444", "LONGITUDE": "31.2358"}},
        { "type": "Feature", "properties": { "NAME_EN": "Dhaka", "LATITUDE": "23.7639", "LONGITUDE": "90.3889"}},
        { "type": "Feature", "properties": { "NAME_EN": "Beijing", "LATITUDE": "39.9040", "LONGITUDE": "116.4075"}},
        { "type": "Feature", "properties": { "NAME_EN": "Kolkata", "LATITUDE": "22.5675", "LONGITUDE": "88.3700"}},
        { "type": "Feature", "properties": { "NAME_EN": "Bangkok", "LATITUDE": "13.7525", "LONGITUDE": "100.4942"}},
        { "type": "Feature", "properties": { "NAME_EN": "Shenzhen", "LATITUDE": "22.5350", "LONGITUDE": "114.0540"}},
        { "type": "Feature", "properties": { "NAME_EN": "Moscow", "LATITUDE": "55.7558", "LONGITUDE": "37.6178"}},
        { "type": "Feature", "properties": { "NAME_EN": "Buenos Aires", "LATITUDE": "-34.5997", "LONGITUDE": "-58.3819"}},
        { "type": "Feature", "properties": { "NAME_EN": "Lagos", "LATITUDE": "6.4550", "LONGITUDE": "3.3841"}},
        { "type": "Feature", "properties": { "NAME_EN": "Istanbul", "LATITUDE": "41.0136", "LONGITUDE": "28.9550"}},
        { "type": "Feature", "properties": { "NAME_EN": "Karachi", "LATITUDE": "24.8600", "LONGITUDE": "67.0100"}},
        { "type": "Feature", "properties": { "NAME_EN": "Bangalore", "LATITUDE": "12.9789", "LONGITUDE": "77.5917"}},
        { "type": "Feature", "properties": { "NAME_EN": "Ho Chi Minh City", "LATITUDE": "10.7756", "LONGITUDE": "106.7019"}},
        { "type": "Feature", "properties": { "NAME_EN": "Osaka", "LATITUDE": "34.6939", "LONGITUDE": "135.5022"}},
        { "type": "Feature", "properties": { "NAME_EN": "Chengdu", "LATITUDE": "30.6600", "LONGITUDE": "104.0633"}},
        { "type": "Feature", "properties": { "NAME_EN": "Tehran", "LATITUDE": "35.6892", "LONGITUDE": "51.3889"}},
        { "type": "Feature", "properties": { "NAME_EN": "Rio de Janeiro", "LATITUDE": "-22.9111", "LONGITUDE": "-43.2056"}},
        { "type": "Feature", "properties": { "NAME_EN": "Chennai", "LATITUDE": "13.0825", "LONGITUDE": "80.2750"}},
        { "type": "Feature", "properties": { "NAME_EN": "Xi'an", "LATITUDE": "34.2667", "LONGITUDE": "108.9000"}},
        { "type": "Feature", "properties": { "NAME_EN": "Lahore", "LATITUDE": "31.5497", "LONGITUDE": "74.3436"}},
        { "type": "Feature", "properties": { "NAME_EN": "Chongqing", "LATITUDE": "29.5500", "LONGITUDE": "106.5069"}},
        { "type": "Feature", "properties": { "NAME_EN": "Baoding", "LATITUDE": "38.8671", "LONGITUDE": "115.4845"}},
        { "type": "Feature", "properties": { "NAME_EN": "London", "LATITUDE": "51.5072", "LONGITUDE": "-0.1275"}},
        { "type": "Feature", "properties": { "NAME_EN": "Paris", "LATITUDE": "48.8567", "LONGITUDE": "2.3522"}},
        { "type": "Feature", "properties": { "NAME_EN": "Linyi", "LATITUDE": "35.1041", "LONGITUDE": "118.3502"}},
        { "type": "Feature", "properties": { "NAME_EN": "Dongguan", "LATITUDE": "23.0475", "LONGITUDE": "113.7493"}},
        { "type": "Feature", "properties": { "NAME_EN": "Hyderabad", "LATITUDE": "17.3850", "LONGITUDE": "78.4867"}},
        { "type": "Feature", "properties": { "NAME_EN": "Tianjin", "LATITUDE": "39.1467", "LONGITUDE": "117.2056"}},
        { "type": "Feature", "properties": { "NAME_EN": "Lima", "LATITUDE": "-12.0600", "LONGITUDE": "-77.0375"}},
        { "type": "Feature", "properties": { "NAME_EN": "Wuhan", "LATITUDE": "30.5872", "LONGITUDE": "114.2881"}},
        { "type": "Feature", "properties": { "NAME_EN": "Nanyang", "LATITUDE": "32.9987", "LONGITUDE": "112.5292"}},
        { "type": "Feature", "properties": { "NAME_EN": "Hangzhou", "LATITUDE": "30.2500", "LONGITUDE": "120.1675"}},
        { "type": "Feature", "properties": { "NAME_EN": "Foshan", "LATITUDE": "23.0292", "LONGITUDE": "113.1056"}},
        { "type": "Feature", "properties": { "NAME_EN": "Nagoya", "LATITUDE": "35.1833", "LONGITUDE": "136.9000"}},
        { "type": "Feature", "properties": { "NAME_EN": "Taipei", "LATITUDE": "25.0375", "LONGITUDE": "121.5625"}},
        { "type": "Feature", "properties": { "NAME_EN": "Tongshan", "LATITUDE": "34.2610", "LONGITUDE": "117.1859"}},
        { "type": "Feature", "properties": { "NAME_EN": "Luanda", "LATITUDE": "-8.8383", "LONGITUDE": "13.2344"}},
        { "type": "Feature", "properties": { "NAME_EN": "Zhoukou", "LATITUDE": "33.6250", "LONGITUDE": "114.6418"}},
        { "type": "Feature", "properties": { "NAME_EN": "Ganzhou", "LATITUDE": "25.8292", "LONGITUDE": "114.9336"}},



        { "type": "Feature", "properties": { "NAME_EN": "Ganzhou", "LATITUDE": "25.8292", "LONGITUDE": "114.9336"}},
        { "type": "Feature", "properties": { "NAME_EN": "Ganzhou", "LATITUDE": "25.8292", "LONGITUDE": "114.9336"}},
        { "type": "Feature", "properties": { "NAME_EN": "Ganzhou", "LATITUDE": "25.8292", "LONGITUDE": "114.9336"}},
        { "type": "Feature", "properties": { "NAME_EN": "Ganzhou", "LATITUDE": "25.8292", "LONGITUDE": "114.9336"}},
        { "type": "Feature", "properties": { "NAME_EN": "Ganzhou", "LATITUDE": "25.8292", "LONGITUDE": "114.9336"}},
        { "type": "Feature", "properties": { "NAME_EN": "Ganzhou", "LATITUDE": "25.8292", "LONGITUDE": "114.9336"}}


      
    ]   
          
}

